{"fetched_at":"2026-03-29T02:12:04Z","count":15717,"tles":[{"name":"OMNI-M1","line1":"1 26857U 01026A   26085.67409690 -.00000006  00000+0  00000+0 0  9994","line2":"2 26857  44.8666 264.2755 0017156  35.9466 324.1845  3.92401849202335","category":"Other"}]}